DELTA 2 R/B(1)          
1 20453U 90008B   26104.56936001  .00034682  00000+0  34673-3 0  9992
2 20453  35.6028 298.5166 0076200 236.3974 122.9473 15.60838164931739
COSMOS 2058             
1 20465U 90010A   26104.19845155  .00001529  00000+0  88178-4 0  9990
2 20465  82.4726  12.4437 0008907 204.0491 156.0324 15.11652033947607
SL-14 R/B               
1 20466U 90010B   26104.63556714  .00000287  00000+0  31767-4 0  9992
2 20466  82.5024 233.6183 0019884 177.1899 182.9432 14.83604827933815
SL-14 R/B               
1 20511U 90018B   26104.35028086  .00000218  00000+0  24438-4 0  9997
2 20511  82.5242 189.7689 0015574 339.5541  20.5048 14.82179198927865
HST                     
1 20580U 90037B   26104.43197219  .00003882  00000+0  12212-3 0  9994
2 20580  28.4729 156.0715 0002264 153.0742 206.9971 15.30045577778799
SL-16 R/B               
1 20625U 90046B   26104.60857116 -.00000288  00000+0 -12382-3 0  9999
2 20625  70.9994 222.4731 0016521 252.8511 107.0802 14.15017188853476
COSMOS 2084             
1 20663U 90055A   26104.31760515  .00001264  00000+0  10043-3 0  9990
2 20663  62.7901 214.0405 0011354 203.4732 156.5851 15.05864496941682
SL-6 R/B(2)             
1 20666U 90055D   26104.41590564  .00000931  00000+0  81578-4 0  9991
2 20666  62.7806 132.3417 0030628 354.7349   5.3423 15.03758301943563
SL-8 R/B                
1 20775U 90078B   26104.24445248  .00008144  00000+0  24021-3 0  9999
2 20775  82.9049 219.3074 0356653 253.9043 102.2644 14.90049658814597
SL-8 R/B                
1 21088U 91006B   26104.35128888  .00000118  00000+0  10304-3 0  9991
2 21088  82.9415 143.5284 0021049 296.8942  73.7434 13.77500876768983
OKEAN-3                 
1 21397U 91039A   26104.51751996  .00001105  00000+0  75748-4 0  9991
2 21397  82.5140 302.1207 0013750 203.2333 156.8274 15.05011587870428
COSMOS 2151             
1 21422U 91042A   26104.56801433  .00001068  00000+0  83134-4 0  9997
2 21422  82.4975  49.0595 0010892 303.3832  56.6349 15.00264089868574
SL-14 R/B               
1 21423U 91042B   26104.47847328  .00000220  00000+0  24734-4 0  9991
2 21423  82.4958 186.6331 0018389 121.2141 239.0878 14.81864688858371
ERS-1                   
1 21574U 91050A   26104.49514184  .00000177  00000+0  71275-4 0  9993
2 21574  98.7848 123.6258 0033158  96.0385 264.4582 14.39477029820886
ARIANE 40 R/B           
1 21610U 91050F   26104.39160270  .00000157  00000+0  59481-4 0  9999
2 21610  98.1941 155.2751 0002458 350.5047   9.6096 14.42919747824140
INTERCOSMOS 25          
1 21819U 91086A   26104.56338132  .00000737  00000+0  13907-3 0  9998
2 21819  82.5992 288.3138 1485954  39.6282 330.4396 12.12113784501034
SL-8 R/B                
1 21876U 92008B   26104.63399494  .00000010  00000+0 -53722-5 0  9998
2 21876  82.9261 241.0358 0035315  36.2468 335.2748 13.75970153714367
SL-8 R/B                
1 21938U 92020B   26104.57216684 -.00000027  00000+0 -43383-4 0  9993
2 21938  82.9277 127.1138 0028664 194.8830 322.8729 13.75549921706060
USA 81                  
1 21949U 92023A   26104.42580919  .00000138  00000+0  43668-4 0  9994
2 21949  85.0033 110.8128 0001249  82.9520 277.1815 14.32379743 99900
COSMOS 2219             
1 22219U 92076A   26104.59744069  .00000114  00000+0  84282-4 0  9990
2 22219  71.0587 303.0069 0017367 150.9947 209.2144 14.14088805723458
SL-16 R/B               
1 22220U 92076B   26104.42876539  .00000226  00000+0  13671-3 0  9999
2 22220  70.9977 113.0914 0011454  31.7268  74.2641 14.16865888726891
COSMOS 2221             
1 22236U 92080A   26104.41510378  .00001252  00000+0  10812-3 0  9990
2 22236  82.5027 244.8496 0015605  74.7308 285.5638 14.96357636786136
SL-16 R/B               
1 22285U 92093B   26104.49849256 -.00000145  00000+0 -49703-4 0  9990
2 22285  71.0201 289.0937 0006456 257.7937 102.2463 14.15453651718224
COSMOS 2228             
1 22286U 92094A   26104.54110350  .00001275  00000+0  10713-3 0  9995
2 22286  82.5205 202.9872 0018127 176.8749 183.2590 14.97378063781423
SL-16 R/B               
1 22566U 93016B   26104.40116928  .00000034  00000+0  41934-4 0  9995
2 22566  71.0064 140.1804 0012669 269.2824  90.6847 14.15313902707227
COSMOS 2242             
1 22626U 93024A   26104.40527376  .00001260  00000+0  10776-3 0  9995
2 22626  82.5190 232.5468 0016306 180.4470 179.6741 14.96711378785737
SL-16 R/B               
1 22803U 93059B   26104.26151997  .00000033  00000+0  39813-4 0  9997
2 22803  70.9896 296.1131 0016415 163.2913 196.8755 14.17239267684574
ARIANE 40 R/B           
1 22830U 93061H   26104.59123888  .00000113  00000+0  57087-4 0  9996
2 22830  98.4856 172.7589 0010994 171.8045 188.3321 14.32880170699245
COSMOS 2278             
1 23087U 94023A   26104.38389440  .00000330  00000+0  19716-3 0  9992
2 23087  71.0507 100.4177 0009755 322.7111  37.3333 14.14379278649855
SL-16 R/B               
1 23088U 94023B   26104.13146107 -.00000219  00000+0 -88680-4 0  9992
2 23088  71.0025 356.4578 0005611 255.1957 104.8544 14.15019300651106
SL-16 R/B               
1 23343U 94074B   26104.64660003  .00000234  00000+0  37975-4 0  9990
2 23343  97.7055 133.9993 0008093 102.1290 354.3108 14.79448311692566
SL-16 R/B               
1 23405U 94077B   26104.45259227  .00000111  00000+0  81077-4 0  9999
2 23405  70.9811 277.2489 0001113 162.4899 197.6262 14.15566844621293
ARIANE 40+ R/B          
1 23561U 95021B   26104.45796583  .00000153  00000+0  62757-4 0  9993
2 23561  98.4442 175.4452 0007415  43.9752 326.5516 14.39798032624393
SL-16 R/B               
1 23705U 95058B   26104.39066390  .00000309  00000+0  18238-3 0  9999
2 23705  71.0190 105.3015 0010596  60.2676 299.9500 14.15502283572908
SL-16 R/B               
1 24298U 96051B   26104.22237253  .00000050  00000+0  53859-4 0  9993
2 24298  70.7581 100.0293 0012671  87.8841 272.3730 14.12425119526662
ORBVIEW 2 (SEASTAR)     
1 24883U 97037A   26104.45352365  .00000159  00000+0  71404-4 0  9991
2 24883  98.8627 269.7245 0001522 342.2334  17.8797 14.35519998513601
SL-16 R/B               
1 25400U 98043G   26104.58496091  .00000019  00000+0  26877-4 0  9993
2 25400  98.8312  58.2165 0008741 270.9465  89.0713 14.26058068444105
SL-16 R/B               
1 25407U 98045B   26104.38404401  .00000135  00000+0  92197-4 0  9991
2 25407  71.0090 106.5096 0008844 317.5582  42.4856 14.16198559432152
ISS (ZARYA)             
1 25544U 98067A   26104.52178440  .00006465  00000+0  12575-3 0  9997
2 25544  51.6319 255.1813 0006494 311.8952  48.1482 15.48913360561889
CZ-4B R/B               
1 25732U 99025C   26104.35287725  .00000024  00000+0  32367-4 0  9996
2 25732  98.6557 147.7776 0036119 241.4086 128.8229 14.18272379393220
OKEAN-O                 
1 25860U 99039A   26104.40816744  .00000339  00000+0  51201-4 0  9995
2 25860  97.9373 163.9234 0001175 114.6611 245.4724 14.80391545439670
SL-16 R/B               
1 25861U 99039B   26104.42205302  .00000295  00000+0  44132-4 0  9996
2 25861  97.9895 163.4517 0015754 137.8071 222.4357 14.81780333442156
DELTA 2 R/B             
1 25876U 99041E   26104.40267916  .00000421  00000+0  10794-3 0  9999
2 25876  51.7597 158.6113 0502554  93.7424 272.1097 14.11916001368075
HELIOS 1B               
1 25977U 99064A   26104.15758336  .00000885  00000+0  10322-3 0  9990
2 25977  98.1660   7.4383 0000890  37.5499 322.5778 14.87834759690534
TERRA                   
1 25994U 99068A   26104.61228619  .00000214  00000+0  52640-4 0  9996
2 25994  97.9521 156.6611 0003597  78.9650  37.8615 14.61052595400326
SL-16 R/B               
1 26070U 00006B   26104.47939374 -.00000257  00000+0 -10628-3 0  9995
2 26070  71.0045  22.5818 0014760 132.7396 227.4973 14.15829472353625
TITAN 4B R/B            
1 26474U 00047B   26104.60440278  .00001602  00000+0  10531-3 0  9999
2 26474  67.9869 299.4956 0041301 353.9162   6.1479 15.09863397398336
ENVISAT                 
1 27386U 02009A   26104.65058660  .00000038  00000+0  26274-4 0  9991
2 27386  98.3783  57.4052 0001158  84.0198  88.8325 14.39049357264342
IDEFIX & ARIANE 42P R/B 
1 27422U 02021B   26104.29455725  .00000136  00000+0  68083-4 0  9992
2 27422  98.5908  42.4844 0013009  83.0232 277.2430 14.31050439249117
AQUA                    
1 27424U 02022A   26104.62532637  .00000485  00000+0  10648-3 0  9990
2 27424  98.4230  72.6617 0001772 107.6511   7.7010 14.62058209273985
CZ-4B R/B               
1 27432U 02024C   26104.15676269  .00000005  00000+0  25968-4 0  9999
2 27432  98.8766 157.3723 0049052 282.4971 140.7184 14.14553996234253
MIDORI II (ADEOS-II)    
1 27597U 02056A   26104.29576581  .00000166  00000+0  83163-4 0  9996
2 27597  98.7827  63.0336 0000224 134.2730 225.8470 14.29312503215389
H-2A R/B                
1 27601U 02056E   26104.44725024  .00000193  00000+0  81854-4 0  9992
2 27601  98.3261  63.4654 0071267  55.6239  53.6381 14.33786647219230
CZ-4B R/B               
1 28059U 03049C   26104.55505235  .00000217  00000+0  61361-4 0  9993
2 28059  98.6899 100.8749 0049156 121.5477 239.0533 14.55052343191813
CZ-2C R/B               
1 28222U 04012C   26104.43910024  .00041500  00000+0  35763-3 0  9995
2 28222  97.7157 173.2292 0013986 174.1538 185.9889 15.69052888209872
SL-16 R/B               
1 28353U 04021B   26104.59112345  .00000045  00000+0  48075-4 0  9997
2 28353  71.0006 157.1539 0006234 323.2673  36.8021 14.14605484127916
CZ-4B R/B               
1 28415U 04035C   26104.37120532  .00004055  00000+0  14167-3 0  9993
2 28415  97.3442 138.1900 0031165 198.7235 161.2862 15.29682878185369
CZ-2C R/B               
1 28480U 04046B   26104.52606970  .00000089  00000+0  47976-4 0  9997
2 28480  98.1974  17.2765 0140410  49.2451 312.0820 14.27006539113610
ARIANE 5 R/B            
1 28499U 04049H   26104.60666121  .00000501  00000+0  62011-4 0  9999
2 28499  98.2677 274.4215 0083030 234.1576 125.1905 14.85335932151126
